NORAD_CAT_ID,OBJECT_NAME,OBJECT_TYPE,EPOCH,MEAN_MOTION,ECCENTRICITY,INCLINATION,RA_OF_ASC_NODE,ARG_OF_PERICENTER,MEAN_ANOMALY,BSTAR,MEAN_MOTION_DOT,MEAN_MOTION_DDOT,TLE_LINE0,TLE_LINE1,TLE_LINE2,SEMIMAJOR_AXIS,PERIOD,APOGEE,PERIGEE,DECAYED
56469.0,STARLINK-5518,PAYLOAD,2024-03-11 11:12:38,14.98343584,0.000308,70.001,160.7664,267.2645,92.8161,0.000174,1.984e-05,0.0,0 STARLINK-5518,1 56469U 23064X   24071.46711105  .00001984  00000-0  17400-3 0  9991,2 56469  70.0010 160.7664 0003080 267.2645  92.8161 14.98343584 47011,6950.151,96.106,574.157,569.875,0.0
56469.0,STARLINK-5518,PAYLOAD,2024-03-12 04:50:07,14.98333763,0.0002871,69.9997,158.9148,258.3787,101.705,3.338e-05,3.05e-06,0.0,0 STARLINK-5518,1 56469U 23064X   24072.20147864  .00000305  00000-0  33380-4 0  9991,2 56469  69.9997 158.9148 0002871 258.3787 101.7050 14.98333763 47120,6950.181,96.107,574.042,570.051,0.0
56469.0,STARLINK-5518,PAYLOAD,2024-03-12 11:14:41,14.98320869,0.000291,70.0022,158.2419,250.7874,109.2971,-0.00051215,-6.197e-05,0.0,0 STARLINK-5518,1 56469U 23064X   24072.46853775 -.00006197  00000-0 -51215-3 0  9997,2 56469  70.0022 158.2419 0002910 250.7874 109.2971 14.98320869 47165,6950.221,96.108,574.109,570.064,0.0
56469.0,STARLINK-5518,PAYLOAD,2024-03-12 22:27:40,14.98319746,0.0001992,70.0031,157.0635,271.9794,88.1136,-0.0013592,-0.00016268,0.0,0 STARLINK-5518,1 56469U 23064X   24072.93588137 -.00016268  00000-0 -13592-2 0  9991,2 56469  70.0031 157.0635 0001992 271.9794  88.1136 14.98319746 46874,6950.225,96.108,573.474,570.705,0.0
56469.0,STARLINK-5518,PAYLOAD,2024-03-13 04:52:09,14.98331573,0.0002715,70.0028,156.3891,266.8961,93.1887,-0.00033214,-4.054e-05,0.0,0 STARLINK-5518,1 56469U 23064X   24073.20289210 -.00004054  00000-0 -33214-3 0  9996,2 56469  70.0028 156.3891 0002715 266.8961  93.1887 14.98331573 47275,6950.188,96.107,573.94,570.166,0.0
56469.0,STARLINK-5518,PAYLOAD,2024-03-13 11:16:40,14.98344415,0.0002085,70.002,155.7164,254.2084,105.8845,-0.00012951,-1.638e-05,0.0,0 STARLINK-5518,1 56469U 23064X   24073.46991752 -.00001638  00000-0 -12951-3 0  9995,2 56469  70.0020 155.7164 0002085 254.2084 105.8845 14.98344415 47319,6950.148,96.106,573.462,570.564,0.0
56469.0,STARLINK-5518,PAYLOAD,2024-03-13 11:16:41,14.9834233,0.0002499,70.0003,155.7186,270.4589,89.6284,-0.00020042,-2.484e-05,0.0,0 STARLINK-5518,1 56469U 23064X   24073.46992124 -.00002484  00000-0 -20042-3 0  9999,2 56469  70.0003 155.7186 0002499 270.4589  89.6284 14.98342330 47313,6950.155,96.106,573.757,570.283,0.0
56469.0,STARLINK-5518,PAYLOAD,2024-03-14 06:30:17,14.9832817,0.0003084,70.0001,153.6967,260.6835,99.3975,5.5058e-05,5.64e-06,0.0,0 STARLINK-5518,1 56469U 23064X   24074.27104007  .00000564  00000-0  55058-4 0  9995,2 56469  70.0001 153.6967 0003084 260.6835  99.3975 14.98328170 47075,6950.199,96.107,574.207,569.92,0.0
56469.0,STARLINK-5518,PAYLOAD,2024-03-14 11:18:42,14.98324545,0.000286,69.9997,153.1925,259.7018,100.3818,0.00010125,1.115e-05,0.0,0 STARLINK-5518,1 56469U 23064X   24074.47132170  .00001115  00000-0  10125-3 0  9997,2 56469  69.9997 153.1925 0002860 259.7018 100.3818 14.98324545 47462,6950.21,96.107,574.063,570.087,0.0
56469.0,STARLINK-5518,PAYLOAD,2024-03-15 11:20:43,14.983297,0.0003109,69.9997,150.669,267.9018,92.1785,-1.0891e-05,-2.23e-06,0.0,0 STARLINK-5518,1 56469U 23064X   24075.47272299 -.00000223  00000-0 -10891-4 0  9997,2 56469  69.9997 150.6690 0003109 267.9018  92.1785 14.98329700 47617,6950.194,96.107,574.22,569.898,0.0
56469.0,STARLINK-5518,PAYLOAD,2024-03-15 14:32:59,14.98330223,0.0003128,69.9997,150.3324,268.5654,91.5147,-6.494e-06,-1.71e-06,0.0,0 STARLINK-5518,1 56469U 23064X   24075.60624252 -.00000171  00000-0 -64940-5 0  9999,2 56469  69.9997 150.3324 0003128 268.5654  91.5147 14.98330223 47271,6950.192,96.107,574.231,569.883,0.0
56469.0,STARLINK-5518,PAYLOAD,2024-03-16 12:58:52,14.983285,0.0002958,70.0001,147.9766,265.0066,95.0755,4.7397e-06,-3.6e-07,0.0,0 STARLINK-5518,1 56469U 23064X   24076.54088379 -.00000036  00000-0  47397-5 0  9993,2 56469  70.0001 147.9766 0002958 265.0066  95.0755 14.98328500 47775,6950.198,96.107,574.118,570.007,0.0
56469.0,STARLINK-5518,PAYLOAD,2024-03-16 14:35:00,14.98328935,0.0002966,70.0001,147.8084,265.3822,94.6999,9.2127e-06,1.7e-07,0.0,0 STARLINK-5518,1 56469U 23064X   24076.60764346  .00000017  00000-0  92127-5 0  9994,2 56469  70.0001 147.8084 0002966 265.3822  94.6999 14.98328935 47428,6950.196,96.107,574.123,570.0,0.0
56469.0,STARLINK-5518,PAYLOAD,2024-03-17 13:00:52,14.98331687,0.0002984,69.9999,145.4515,268.6177,91.464,5.5016e-05,5.64e-06,0.0,0 STARLINK-5518,1 56469U 23064X   24077.54228003  .00000564  00000-0  55016-4 0  9995,2 56469  69.9999 145.4515 0002984 268.6177  91.4640 14.98331687 47924,6950.188,96.107,574.127,569.979,0.0
56469.0,STARLINK-5518,PAYLOAD,2024-03-17 14:37:01,14.98332159,0.000299,69.9999,145.2832,268.821,91.2606,5.8881e-05,6.1e-06,0.0,0 STARLINK-5518,1 56469U 23064X   24077.60903954  .00000610  00000-0  58881-4 0  9992,2 56469  69.9999 145.2832 0002990 268.8210  91.2606 14.98332159 47577,6950.186,96.107,574.129,569.973,0.0
56469.0,STARLINK-5518,PAYLOAD,2024-03-18 11:26:46,14.98326003,0.0002872,70.0001,143.0952,267.0659,93.0171,-1.2144e-05,-2.38e-06,0.0,0 STARLINK-5518,1 56469U 23064X   24078.47692602 -.00000238  00000-0 -12144-4 0  9993,2 56469  70.0001 143.0952 0002872 267.0659  93.0171 14.98326003 48063,6950.205,96.107,574.066,570.074,0.0
56469.0,STARLINK-5518,PAYLOAD,2024-03-18 14:39:02,14.98327235,0.0002852,70.0002,142.7585,267.3943,92.689,2.3256e-06,-6.5e-07,0.0,0 STARLINK-5518,1 56469U 23064X   24078.61044504 -.00000065  00000-0  23256-5 0  9995,2 56469  70.0002 142.7585 0002852 267.3943  92.6890 14.98327235 47722,6950.201,96.107,574.049,570.084,0.0
56469.0,STARLINK-5518,PAYLOAD,2024-03-19 03:28:06,14.98339264,0.0002625,70.0001,141.4132,265.4609,94.6251,-9.4712e-05,-1.223e-05,0.0,0 STARLINK-5518,1 56469U 23064X   24079.14452022 -.00001223  00000-0 -94712-4 0  9994,2 56469  70.0001 141.4132 0002625 265.4609  94.6251 14.98339264 48168,6950.164,96.106,573.854,570.205,0.0
56469.0,STARLINK-5518,PAYLOAD,2024-03-19 11:28:46,14.98336086,0.0002684,70.0003,140.5705,259.5022,100.5834,4.9174e-05,4.94e-06,0.0,0 STARLINK-5518,1 56469U 23064X   24079.47831635  .00000494  00000-0  49174-4 0  9990,2 56469  70.0003 140.5705 0002684 259.5022 100.5834 14.98336086 47852,6950.174,96.107,573.904,570.174,0.0
56469.0,STARLINK-5518,PAYLOAD,2024-03-20 09:54:40,14.98318383,0.0003024,69.9994,138.2133,267.9694,92.1119,-9.7372e-05,-1.254e-05,0.0,0 STARLINK-5518,1 56469U 23064X   24080.41297097 -.00001254  00000-0 -97372-4 0  9994,2 56469  69.9994 138.2133 0003024 267.9694  92.1119 14.98318383 48352,6950.229,96.108,574.196,569.992,0.0
56469.0,STARLINK-5518,PAYLOAD,2024-03-20 13:06:56,14.98324926,0.000292,69.9994,137.8773,260.2233,99.8596,-3.4921e-05,-5.1e-06,0.0,0 STARLINK-5518,1 56469U 23064X   24080.54648507 -.00000510  00000-0 -34921-4 0  9999,2 56469  69.9994 137.8773 0002920 260.2233  99.8596 14.98324926 48012,6950.209,96.107,574.103,570.044,0.0
56469.0,STARLINK-5518,PAYLOAD,2024-03-21 13:08:56,14.98338517,0.0003086,69.9987,135.3509,269.7401,90.3404,-6.362e-06,-1.69e-06,0.0,0 STARLINK-5518,1 56469U 23064X   24081.54787612 -.00000169  00000-0 -63620-5 0  9990,2 56469  69.9987 135.3509 0003086 269.7401  90.3404 14.98338517 48520,6950.167,96.106,574.176,569.887,0.0
56469.0,STARLINK-5518,PAYLOAD,2024-03-22 13:10:56,14.98336422,0.0002828,69.9992,132.8262,267.5177,92.5659,0.00017137,1.953e-05,0.0,0 STARLINK-5518,1 56469U 23064X   24082.54927059  .00001953  00000-0  17137-3 0  9992,2 56469  69.9992 132.8262 0002828 267.5177  92.5659 14.98336422 48319,6950.173,96.107,574.004,570.073,0.0
56469.0,STARLINK-5518,PAYLOAD,2024-03-23 05:12:18,14.98323868,0.0002814,70.0,131.1463,261.7338,98.3502,-2.8818e-05,-4.37e-06,0.0,0 STARLINK-5518,1 56469U 23064X   24083.21688393 -.00000437  00000-0 -28818-4 0  9999,2 56469  70.0000 131.1463 0002814 261.7338  98.3502 14.98323868 48778,6950.212,96.107,574.033,570.121,0.0
56469.0,STARLINK-5518,PAYLOAD,2024-03-23 13:12:59,14.98313957,0.0002655,69.9996,130.3019,263.0811,97.0046,2.3781e-05,1.91e-06,0.0,0 STARLINK-5518,1 56469U 23064X   24083.55069088  .00000191  00000-0  23781-4 0  9999,2 56469  69.9996 130.3019 0002655 263.0811  97.0046 14.98313957 48824,6950.243,96.108,573.953,570.262,0.0
56469.0,STARLINK-5518,PAYLOAD,2024-03-24 05:14:18,14.9833892,0.0003325,69.9979,128.6186,266.4967,93.5811,-2.1065e-05,-3.44e-06,0.0,0 STARLINK-5518,1 56469U 23064X   24084.21827467 -.00000344  00000-0 -21065-4 0  9991,2 56469  69.9979 128.6186 0003325 266.4967  93.5811 14.98338920 48923,6950.165,96.106,574.341,569.719,0.0
56469.0,STARLINK-5518,PAYLOAD,2024-03-24 13:14:58,14.98349679,0.0003029,69.9986,127.7767,269.9964,90.0848,0.00013727,1.546e-05,0.0,0 STARLINK-5518,1 56469U 23064X   24084.55206171  .00001546  00000-0  13727-3 0  9999,2 56469  69.9986 127.7767 0003029 269.9964  90.0848 14.98349679 48972,6950.132,96.106,574.102,569.892,0.0
56469.0,STARLINK-5518,PAYLOAD,2024-03-25 05:16:20,14.98320912,0.0002167,70.0019,126.0978,233.8038,126.2921,0.00013486,1.516e-05,0.0,0 STARLINK-5518,1 56469U 23064X   24085.21968042  .00001516  00000-0  13486-3 0  9994,2 56469  70.0019 126.0978 0002167 233.8038 126.2921 14.98320912 49077,6950.221,96.108,573.592,570.58,0.0
56469.0,STARLINK-5518,PAYLOAD,2024-03-25 19:41:33,14.98322939,0.0003059,69.9982,124.5753,272.287,87.7938,-4.2586e-05,-6.01e-06,0.0,0 STARLINK-5518,1 56469U 23064X   24085.82052563 -.00000601  00000-0 -42586-4 0  9993,2 56469  69.9982 124.5753 0003059 272.2870  87.7938 14.98322939 49169,6950.215,96.107,574.206,569.954,0.0
56469.0,STARLINK-5518,PAYLOAD,2024-03-26 13:19:02,14.9832334,0.0002749,69.9988,122.7265,266.8725,93.2119,-0.00019072,-2.367e-05,0.0,0 STARLINK-5518,1 56469U 23064X   24086.55489310 -.00002367  00000-0 -19072-3 0  9992,2 56469  69.9988 122.7265 0002749 266.8725  93.2119 14.98323340 48918,6950.213,96.107,573.989,570.168,0.0
